[
    {
        "Altitude(m)": 704098.4616849314,
        "Argument of Periapsis(deg)": 0.010251109067964361,
        "Eccentricity": 0.0,
        "Inclination(deg)": 45.0,
        "Latitude(deg)": 29.002798552672406,
        "Longitude(deg)": -172.23068662401818,
        "Mean Anomaly(deg)": 43.107194982732686,
        "RAAN(deg)": 254.99032325268763,
        "Satellite Name": "Constellation 1 1124",
        "Satellite Number": 1124,
        "Semi-Major Axis(m)": 7083131.272910544,
        "Time(s)": 171
    },
    {
        "Altitude(m)": 704104.0701847152,
        "Argument of Periapsis(deg)": 0.010311057074209765,
        "Eccentricity": 0.0,
        "Inclination(deg)": 45.0,
        "Latitude(deg)": 29.038770293689876,
        "Longitude(deg)": -172.17881557315044,
        "Mean Anomaly(deg)": 43.167896122982675,
        "RAAN(deg)": 254.99026666352208,
        "Satellite Name": "Constellation 1 1124",
        "Satellite Number": 1124,
        "Semi-Major Axis(m)": 7083131.272910544,
        "Time(s)": 172
    },
    {
        "Altitude(m)": 704109.6840673267,
        "Argument of Periapsis(deg)": 0.010371005080455171,
        "Eccentricity": 0.0,
        "Inclination(deg)": 45.0,
        "Latitude(deg)": 29.074718504849077,
        "Longitude(deg)": -172.1269057172016,
        "Mean Anomaly(deg)": 43.22859726323251,
        "RAAN(deg)": 254.9902100743565,
        "Satellite Name": "Constellation 1 1124",
        "Satellite Number": 1124,
        "Semi-Major Axis(m)": 7083131.272910544,
        "Time(s)": 173
    },
    {
        "Altitude(m)": 704115.3032936298,
        "Argument of Periapsis(deg)": 0.010430953086700577,
        "Eccentricity": 0.0,
        "Inclination(deg)": 45.0,
        "Latitude(deg)": 29.110643135662013,
        "Longitude(deg)": -172.07495699722446,
        "Mean Anomaly(deg)": 43.2892984034824,
        "RAAN(deg)": 254.99015348519092,
        "Satellite Name": "Constellation 1 1124",
        "Satellite Number": 1124,
        "Semi-Major Axis(m)": 7083131.272910544,
        "Time(s)": 174
    },
    {
        "Altitude(m)": 704120.9278244722,
        "Argument of Periapsis(deg)": 0.010490901092945983,
        "Eccentricity": 0.0,
        "Inclination(deg)": 45.0,
        "Latitude(deg)": 29.146544135568853,
        "Longitude(deg)": -172.02296935431406,
        "Mean Anomaly(deg)": 43.34999954373233,
        "RAAN(deg)": 254.99009689602536,
        "Satellite Name": "Constellation 1 1124",
        "Satellite Number": 1124,
        "Semi-Major Axis(m)": 7083131.272910544,
        "Time(s)": 175
    },
    {
        "Altitude(m)": 704126.557620686,
        "Argument of Periapsis(deg)": 0.010550849099191389,
        "Eccentricity": 0.0,
        "Inclination(deg)": 45.0,
        "Latitude(deg)": 29.18242145393796,
        "Longitude(deg)": -171.97094272960797,
        "Mean Anomaly(deg)": 43.41070068398222,
        "RAAN(deg)": 254.9900403068598,
        "Satellite Name": "Constellation 1 1124",
        "Satellite Number": 1124,
        "Semi-Major Axis(m)": 7083131.272910544,
        "Time(s)": 176
    },
    {
        "Altitude(m)": 704132.1926431035,
        "Argument of Periapsis(deg)": 0.010610797105436795,
        "Eccentricity": 0.0,
        "Inclination(deg)": 45.0,
        "Latitude(deg)": 29.2182750400659,
        "Longitude(deg)": -171.91887706428673,
        "Mean Anomaly(deg)": 43.47140182423211,
        "RAAN(deg)": 254.98998371769426,
        "Satellite Name": "Constellation 1 1124",
        "Satellite Number": 1124,
        "Semi-Major Axis(m)": 7083131.272910544,
        "Time(s)": 177
    },
    {
        "Altitude(m)": 704137.8328525501,
        "Argument of Periapsis(deg)": 0.0106707451116822,
        "Eccentricity": 0.0,
        "Inclination(deg)": 45.0,
        "Latitude(deg)": 29.254104843177714,
        "Longitude(deg)": -171.8667724676715,
        "Mean Anomaly(deg)": 43.53210296448199,
        "RAAN(deg)": 254.98992712852865,
        "Satellite Name": "Constellation 1 1124",
        "Satellite Number": 1124,
        "Semi-Major Axis(m)": 7083131.272910544,
        "Time(s)": 178
    },
    {
        "Altitude(m)": 704143.478209831,
        "Argument of Periapsis(deg)": 0.010730693117927606,
        "Eccentricity": 0.0,
        "Inclination(deg)": 45.0,
        "Latitude(deg)": 29.289910812425436,
        "Longitude(deg)": -171.81462854483692,
        "Mean Anomaly(deg)": 43.592804104731925,
        "RAAN(deg)": 254.98987053936307,
        "Satellite Name": "Constellation 1 1124",
        "Satellite Number": 1124,
        "Semi-Major Axis(m)": 7083131.272910544,
        "Time(s)": 179
    },
    {
        "Altitude(m)": 704149.1286757477,
        "Argument of Periapsis(deg)": 0.01079064112417301,
        "Eccentricity": 0.0,
        "Inclination(deg)": 45.0,
        "Latitude(deg)": 29.3256928968902,
        "Longitude(deg)": -171.76244540519332,
        "Mean Anomaly(deg)": 43.653505244981815,
        "RAAN(deg)": 254.98981395019752,
        "Satellite Name": "Constellation 1 1124",
        "Satellite Number": 1124,
        "Semi-Major Axis(m)": 7083131.272910544,
        "Time(s)": 180
    },
    {
        "Altitude(m)": 704154.784211101,
        "Argument of Periapsis(deg)": 0.010850589130418416,
        "Eccentricity": 0.0,
        "Inclination(deg)": 45.0,
        "Latitude(deg)": 29.361451045580708,
        "Longitude(deg)": -171.71022299009945,
        "Mean Anomaly(deg)": 43.714206385231705,
        "RAAN(deg)": 254.98975736103196,
        "Satellite Name": "Constellation 1 1124",
        "Satellite Number": 1124,
        "Semi-Major Axis(m)": 7083131.272910544,
        "Time(s)": 181
    },
    {
        "Altitude(m)": 704160.4447766689,
        "Argument of Periapsis(deg)": 0.01091053713666382,
        "Eccentricity": 0.0,
        "Inclination(deg)": 45.0,
        "Latitude(deg)": 29.397185207433687,
        "Longitude(deg)": -171.65796124096042,
        "Mean Anomaly(deg)": 43.77490752548164,
        "RAAN(deg)": 254.98970077186635,
        "Satellite Name": "Constellation 1 1124",
        "Satellite Number": 1124,
        "Semi-Major Axis(m)": 7083131.272910544,
        "Time(s)": 182
    },
    {
        "Altitude(m)": 704166.1103332274,
        "Argument of Periapsis(deg)": 0.010970485142909228,
        "Eccentricity": 0.0,
        "Inclination(deg)": 45.0,
        "Latitude(deg)": 29.43289533131358,
        "Longitude(deg)": -171.6056600992279,
        "Mean Anomaly(deg)": 43.83560866573153,
        "RAAN(deg)": 254.9896441827008,
        "Satellite Name": "Constellation 1 1124",
        "Satellite Number": 1124,
        "Semi-Major Axis(m)": 7083131.272910544,
        "Time(s)": 183
    },
    {
        "Altitude(m)": 704171.7808415511,
        "Argument of Periapsis(deg)": 0.011030433149154634,
        "Eccentricity": 0.0,
        "Inclination(deg)": 45.0,
        "Latitude(deg)": 29.46858136601285,
        "Longitude(deg)": -171.55331950640098,
        "Mean Anomaly(deg)": 43.89630980598142,
        "RAAN(deg)": 254.98958759353522,
        "Satellite Name": "Constellation 1 1124",
        "Satellite Number": 1124,
        "Semi-Major Axis(m)": 7083131.272910544,
        "Time(s)": 184
    },
    {
        "Altitude(m)": 704177.4562623965,
        "Argument of Periapsis(deg)": 0.01109038115540004,
        "Eccentricity": 0.0,
        "Inclination(deg)": 45.0,
        "Latitude(deg)": 29.504243260251965,
        "Longitude(deg)": -171.50093957212357,
        "Mean Anomaly(deg)": 43.9570109462313,
        "RAAN(deg)": 254.98953100436967,
        "Satellite Name": "Constellation 1 1124",
        "Satellite Number": 1124,
        "Semi-Major Axis(m)": 7083131.272910544,
        "Time(s)": 185
    },
    {
        "Altitude(m)": 704183.1365565207,
        "Argument of Periapsis(deg)": 0.011150329161645444,
        "Eccentricity": 0.0,
        "Inclination(deg)": 45.0,
        "Latitude(deg)": 29.539880962678197,
        "Longitude(deg)": -171.4485199017973,
        "Mean Anomaly(deg)": 44.01771208648123,
        "RAAN(deg)": 254.9894744152041,
        "Satellite Name": "Constellation 1 1124",
        "Satellite Number": 1124,
        "Semi-Major Axis(m)": 7083131.272910544,
        "Time(s)": 186
    },
    {
        "Altitude(m)": 704188.8216846678,
        "Argument of Periapsis(deg)": 0.01121027716789085,
        "Eccentricity": 0.0,
        "Inclination(deg)": 45.0,
        "Latitude(deg)": 29.57549442186751,
        "Longitude(deg)": -171.39606060516394,
        "Mean Anomaly(deg)": 44.07841322673112,
        "RAAN(deg)": 254.9894178260385,
        "Satellite Name": "Constellation 1 1124",
        "Satellite Number": 1124,
        "Semi-Major Axis(m)": 7083131.272910544,
        "Time(s)": 187
    },
    {
        "Altitude(m)": 704194.5116075729,
        "Argument of Periapsis(deg)": 0.011270225174136258,
        "Eccentricity": 0.0,
        "Inclination(deg)": 45.0,
        "Latitude(deg)": 29.611083586323204,
        "Longitude(deg)": -171.34356162391808,
        "Mean Anomaly(deg)": 44.13911436698101,
        "RAAN(deg)": 254.98936123687295,
        "Satellite Name": "Constellation 1 1124",
        "Satellite Number": 1124,
        "Semi-Major Axis(m)": 7083131.272910544,
        "Time(s)": 188
    },
    {
        "Altitude(m)": 704200.206285971,
        "Argument of Periapsis(deg)": 0.011330173180381662,
        "Eccentricity": 0.0,
        "Inclination(deg)": 45.0,
        "Latitude(deg)": 29.646648404476156,
        "Longitude(deg)": -171.29102289980497,
        "Mean Anomaly(deg)": 44.199815507230895,
        "RAAN(deg)": 254.9893046477074,
        "Satellite Name": "Constellation 1 1124",
        "Satellite Number": 1124,
        "Semi-Major Axis(m)": 7083131.272910544,
        "Time(s)": 189
    }
]